1 60722U 24152C   25319.73013848  .00002232  00000+0  23294-4 0  9997
2 60722  53.1587 318.2422 0001246  81.1250 278.9909 15.69693854 71053
STARLINK-11272 [DTC]    
1 60723U 24152D   25319.72032193  .00001899  00000+0  20539-4 0  9998
2 60723  53.1592 318.1779 0001047 104.8914 255.2220 15.69700358 70931
STARLINK-11261 [DTC]    
1 60724U 24152E   25319.27953464  .00012461  00000+0  10750-3 0  9992
2 60724  53.1570 320.4054 0001233  98.3894 261.7263 15.69721254 70860
STARLINK-11263 [DTC]    
1 60725U 24152F   25319.26972463  .00011159  00000+0  96810-4 0  9997
2 60725  53.1582 320.3403 0001406  88.0892 272.0286 15.69717177 70866
STARLINK-11235 [DTC]    
1 60726U 24152G   25319.71051396  .00006838  00000+0  61283-4 0  9995
2 60726  53.1584 318.1096 0001565 107.7735 252.3454 15.69699069 71063
STARLINK-11080 [DTC]    
1 60727U 24152H   25319.70560065  .00003366  00000+0  32637-4 0  9997
2 60727  53.1596 318.0793 0001310 104.4683 255.6480 15.69703948 71061
STARLINK-11249 [DTC]    
1 60728U 24152J   25319.70069297  .00004714  00000+0  43753-4 0  9998
2 60728  53.1571 318.0459 0000982  91.1818 268.9313 15.69704940 70930
STARLINK-11146 [DTC]    
1 60729U 24152K   25319.31379061  .00004560  00000+0  42557-4 0  9999
2 60729  53.1588 319.8836 0001597  56.7244 303.3927 15.69666582 71003
STARLINK-11255 [DTC]    
1 60730U 24152L   25319.18152904  .00007018  00000+0  62771-4 0  9992
2 60730  53.1578 320.4906 0001473  84.0574 276.0612 15.69696621 70860
STARLINK-11254 [DTC]    
1 60731U 24152M   25319.49496362  .00007979  00000+0  70691-4 0  9992
2 60731  53.1576 318.8915 0001230  98.6301 261.4856 15.69695826 70910
STARLINK-11266 [DTC]    
1 60732U 24152N   25319.29903720  .00008810  00000+0  77522-4 0  9997
2 60732  53.1589 319.7883 0001228 106.9688 253.1464 15.69702569 70878
STARLINK-32253          
1 60733U 24152P   25318.61664126 -.00000392  00000+0 -11058-5 0  9999
2 60733  53.1557  82.8502 0001481  79.0993 281.0174 15.30187497 69185
STARLINK-32179          
1 60734U 24152Q   25319.70388612  .00002358  00000+0  91759-4 0  9991
2 60734  53.1625  78.2720 0001380 101.0873 259.0283 15.30188138 69262
STARLINK-32272          
1 60735U 24152R   25319.70803380  .00035615  00000+0  11767-2 0  9997
2 60735  53.1583  77.5932 0001843  52.9148 307.2021 15.31072653 69368
STARLINK-32289          
1 60737U 24152T   25319.75652375  .00006125  00000+0  21877-3 0  9998
2 60737  53.1589  77.8872 0002148  71.0929 289.0305 15.30197778 69402
STARLINK-32304          
1 60738U 24152U   25319.49210403  .00004347  00000+0  15882-3 0  9995
2 60738  53.1605  79.0817 0001883  98.2597 261.8617 15.30197720 69368
STARLINK-32235          
1 60739U 24152V   25319.75020277  .00002217  00000+0  86995-4 0  9991
2 60739  53.1593  77.8477 0001908 118.1630 241.9564 15.30187675 69358
STARLINK-32315          
1 60740U 24152W   25319.74703528  .00002541  00000+0  97886-4 0  9990
2 60740  53.1566  77.8288 0001877  95.0977 265.0238 15.30205438 69276
STARLINK-11242 [DTC]    
1 60903U 24154A   25319.31252891  .00007745  00000+0  68770-4 0  9999
2 60903  53.1583 334.8505 0001210  85.2752 274.8404 15.69694778 70554
STARLINK-11256 [DTC]    
1 60904U 24154B   25319.30762733  .00006172  00000+0  55783-4 0  9993
2 60904  53.1591 334.8189 0001687  37.0048 323.1086 15.69702283 70558
STARLINK-11159 [DTC]    
1 60905U 24154C   25319.74362727  .00013397  00000+0  11542-3 0  9992
2 60905  53.1590 333.2894 0001240 121.8410 238.2728 15.69675660 70618
STARLINK-11264 [DTC]    
1 60906U 24154D   25319.29301381  .00004671  00000+0  43402-4 0  9998
2 60906  53.1584 335.4527 0001456 106.4475 253.6703 15.69706584 70544
STARLINK-11226 [DTC]    
1 60907U 24154E   25319.35177553  .00006835  00000+0  61245-4 0  9997
2 60907  53.1584 335.1062 0001216 101.3348 258.7807 15.69704270 70555
STARLINK-11229 [DTC]    
1 60908U 24154F   25319.34686726  .00002568  00000+0  26034-4 0  9990
2 60908  53.1587 335.0758 0000768  74.9740 285.1363 15.69716374 70551
STARLINK-11265 [DTC]    
1 60909U 24154G   25319.30281903  .00007045  00000+0  62966-4 0  9994
2 60909  53.1593 335.5169 0001446  97.2697 262.8485 15.69708343 70546
STARLINK-11250 [DTC]    
1 60910U 24154H   25319.46931360  .00003469  00000+0  33514-4 0  9995
2 60910  53.1594 334.4138 0001291  79.0618 281.0545 15.69685092 70570
STARLINK-11190 [DTC]    
1 60911U 24154J   25319.46440115  .00008605  00000+0  75846-4 0  9990
2 60911  53.1593 334.3809 0001682  65.2871 294.8322 15.69700191 70568
STARLINK-11225 [DTC]    
1 60912U 24154K   25319.33215384  .00008675  00000+0  76439-4 0  9991
2 60912  53.1576 334.9733 0000840  84.8459 275.2655 15.69693244 70546
STARLINK-11273 [DTC]    
1 60913U 24154L   25319.32724324  .00006391  00000+0  57571-4 0  9999
2 60913  53.1585 334.9395 0001306  96.0871 264.0296 15.69709210 70540
STARLINK-11248 [DTC]    
1 60914U 24154M   25319.83335647  .00206711  00000+0  11485-2 0  9992
2 60914  53.1489 331.4667 0006918  56.1703  40.8037 15.78361989  6036
STARLINK-11271 [DTC]    
1 60915U 24154N   25319.31743940  .00006022  00000+0  54568-4 0  9999
2 60915  53.1586 334.8758 0000835  98.3781 261.7331 15.69689804 70546
STARLINK-32371          
1 60916U 24154P   25319.77240257  .00000061  00000+0  14193-4 0  9990
2 60916  53.1576  92.9801 0001880  80.9474 279.1739 15.30209692 68895
STARLINK-32369          
1 60917U 24154Q   25319.75340117  .00001879  00000+0  75546-4 0  9992
2 60917  53.1622  92.8671 0001773  90.2667 269.8537 15.30205694 68891
STARLINK-32317          
1 60918U 24154R   25319.79772635  .00005343  00000+0  19236-3 0  9994
2 60918  53.1578  93.1412 0001588  72.0240 288.0934 15.30203833 68895
STARLINK-32367          
1 60919U 24154S   25319.74182316  .00019110  00000+0  65752-3 0  9992
2 60919  53.1613  92.7926 0000911  73.7623 286.3478 15.30108131 68892
STARLINK-32345          
1 60920U 24154T   25319.79877992  .00004610  00000+0  16765-3 0  9999
2 60920  53.1598  93.1471 0001099  81.7296 278.3830 15.30202468 68902
STARLINK-32356          
1 60921U 24154U   25319.76286223 -.00025944  00000+0 -86364-3 0  9995
2 60921  53.1583  92.9174 0000403 165.5832 194.5181 15.30320956 68900
STARLINK-32274          
1 60922U 24154V   25319.64915784  .00007642  00000+0  27007-3 0  9996
2 60922  53.1621  93.6343 0001304  82.5027 277.6122 15.30176226 68889
STARLINK-32373          
1 60923U 24154W   25319.78927970  .00005216  00000+0  18813-3 0  9992
2 60923  53.1580  93.0893 0001338 102.6161 257.4990 15.30194258 68905
STARLINK-11239 [DTC]    
1 60924U 24155A   25319.63341199  .00000762  00000+0  11147-4 0  9996
2 60924  53.1602 183.8748 0001109  75.6383 284.4758 15.69714643 70485
STARLINK-11245 [DTC]    
1 60925U 24155B   25319.61869410  .00001033  00000+0  13370-4 0  9998
2 60925  53.1593 183.7774 0000744  58.7760 301.3331 15.69720805 70481
STARLINK-11244 [DTC]    
1 60926U 24155C   25319.60888455  .00000891  00000+0  12208-4 0  9998
2 60926  53.1597 183.7087 0001019  83.2604 276.8530 15.69718452 70537
STARLINK-11243 [DTC]    
1 60927U 24155D   25319.67746154  .00003279  00000+0  31920-4 0  9990
2 60927  53.1596 183.4263 0001590 117.2162 242.9018 15.69707972 70496
STARLINK-11238 [DTC]    
1 60928U 24155E   25318.83996889 -.00003039  00000+0 -20252-4 0  9992
2 60928  53.1583 187.4427 0001508  56.2891 303.8270 15.69684347 70418
STARLINK-11240 [DTC]    
1 60929U 24155F   25319.34439722  .00009154  00000+0  80354-4 0  9999
2 60929  53.1593 184.8986 0001843  64.7307 295.3902 15.69705063 70448
STARLINK-11251 [DTC]    
1 60930U 24155G   25319.65786186 -.00000537  00000+0  43397-6 0  9999
2 60930  53.1623 183.2973 0001865 104.1541 255.9684 15.69691702 70494
STARLINK-11204 [DTC]    
1 60931U 24155H   25319.65293381  .00000747  00000+0  11024-4 0  9992
2 60931  53.1602 183.2645 0001217  90.2400 269.8758 15.69715797 70495
STARLINK-11246 [DTC]    
1 60932U 24155J   25319.64802508  .00000688  00000+0  10538-4 0  9992
2 60932  53.1578 183.2314 0001168  79.9647 280.1503 15.69716014 70490
STARLINK-11207 [DTC]    
1 60933U 24155K   25319.64312737  .00002503  00000+0  25499-4 0  9993
2 60933  53.1582 183.1981 0000870  97.0904 263.0213 15.69715814 70496
STARLINK-11237 [DTC]    
1 60934U 24155L   25319.63822038  .00001531  00000+0  17494-4 0  9999
2 60934  53.1593 183.1646 0000978  83.1254 276.9875 15.69708536 70502
STARLINK-11253 [DTC]    
1 60935U 24155M   25319.62850836  .00001223  00000+0  14942-4 0  9999
2 60935  53.1581 183.8343 0000582  91.9368 268.1716 15.69707210 70487
STARLINK-11241 [DTC]    
1 60936U 24155N   25319.62361052  .00008319  00000+0  73514-4 0  9990
2 60936  53.1605 183.8036 0001312  99.7118 260.4048 15.69689355 70487
STARLINK-32259          
1 60937U 24155P   25319.68348927  .00004561  00000+0  16602-3 0  9992
2 60937  53.1620 299.3844 0000591  89.2372 270.8697 15.30199419 68880
STARLINK-32262          
1 60938U 24155Q   25319.64818696  .00003373  00000+0  12596-3 0  9992
2 60938  53.1594 286.7910 0001597  73.4165 286.7011 15.30199867 69106
STARLINK-32258          
1 60939U 24155R   25319.66980051  .00005656  00000+0  20319-3 0  9998
2 60939  53.1610 299.2974 0000806  88.6601 271.4492 15.30157549 68834
STARLINK-32251          
1 60940U 24155S   25319.67613183 -.00000166  00000+0  65367-5 0  9996
2 60940  53.1624 299.3400 0002507  75.2269 284.9009 15.30174017 68885
STARLINK-32224          
1 60941U 24155T   25319.67295757  .00006794  00000+0  24144-3 0  9998
2 60941  53.1617 299.3172 0001733  56.4675 303.6492 15.30180581 68895
STARLINK-32184          
1 60942U 24155U   25319.68033911  .00019117  00000+0  65553-3 0  9994
2 60942  53.1614 299.3668 0001202  78.2730 281.8406 15.30218774 68830
STARLINK-32288          
1 60943U 24155V   25319.23263869  .00008249  00000+0  29035-3 0  9992
2 60943  53.1600 301.5427 0001161  67.9284 292.1840 15.30195836 68760
STARLINK-32276          
1 60944U 24155W   25319.68666830  .00010039  00000+0  35050-3 0  9991
